[{"OBJECT_NAME":"TK-2","OBJECT_ID":"2022-031A","EPOCH":"2026-03-09T22:51:17.143200","MEAN_MOTION":15.02943491,"ECCENTRICITY":0.00164117,"INCLINATION":97.8366,"RA_OF_ASC_NODE":263.9365,"ARG_OF_PERICENTER":100.3205,"MEAN_ANOMALY":259.9871,"EPHEMERIS_TYPE":0,"CLASSIFICATION_TYPE":"U","NORAD_CAT_ID":52150,"ELEMENT_SET_NO":999,"REV_AT_EPOCH":21555,"BSTAR":0.00040164474,"MEAN_MOTION_DOT":5.349e-5,"MEAN_MOTION_DDOT":0},{"OBJECT_NAME":"STARLINK-5224","OBJECT_ID":"2023-014G","EPOCH":"2026-03-09T22:49:25.675104","MEAN_MOTION":14.98330577,"ECCENTRICITY":0.00030454,"INCLINATION":70.0006,"RA_OF_ASC_NODE":43.9524,"ARG_OF_PERICENTER":269.1917,"MEAN_ANOMALY":90.8893,"EPHEMERIS_TYPE":0,"CLASSIFICATION_TYPE":"U","NORAD_CAT_ID":55397,"ELEMENT_SET_NO":999,"REV_AT_EPOCH":17258,"BSTAR":-3.322339e-6,"MEAN_MOTION_DOT":-1.33e-6,"MEAN_MOTION_DDOT":0}]
